{
  "norad_id": 59511,
  "name": "STARLINK-31635",
  "history": [
    {
      "epoch": "2026-03-28T19:21:04.622400Z",
      "apogee_km": 483.71627815598004,
      "perigee_km": 482.2518404770799,
      "latitude_deg": -1.7369363802309515e-05,
      "longitude_deg": 93.19825659264683,
      "height_km": 482.85010455916427,
      "semi_major_axis_km": 6861.12105931653,
      "eccentricity": 0.00010672,
      "inclination_deg": 43.0003,
      "raan_deg": 209.689,
      "arg_perigee_deg": 262.9702,
      "mean_anomaly_deg": 97.1028,
      "mean_motion_rev_day": 15.2760172
    }
  ]
}